ONEWEB-0340             
1 49206U 21083W   26118.13115302  .00000129  00000+0  29520-3 0  9991
2 49206  87.9204 345.4116 0001642  87.0724 273.0596 13.18777475223377
ONEWEB-0341             
1 49207U 21083X   26118.13784403  .00000095  00000+0  20787-3 0  9994
2 49207  87.9197 345.4166 0001254  80.2167 279.9107 13.18756660223397
ONEWEB-0342             
1 49208U 21083Y   26118.19987605  .00000074  00000+0  14916-3 0  9994
2 49208  87.9144 284.4116 0001796  91.5235 268.6104 13.20770166230186
ONEWEB-0343             
1 49209U 21083Z   26118.07033494  .00007045  00000+0  17814-1 0  9993
2 49209  87.9198 345.4269 0001813  66.3733 293.7590 13.18716556223434
ONEWEB-0344             
1 49210U 21083AA  26118.29970858 -.00000222  00000+0 -64413-3 0  9994
2 49210  87.8952 330.1846 0001343  83.7125 276.4157 13.13469199224342
ONEWEB-0345             
1 49211U 21083AB  26118.29123051 -.00000010  00000+0 -62464-4 0  9990
2 49211  87.8968 330.1593 0001410  83.3555 276.7735 13.13470777224357
ONEWEB-0346             
1 49212U 21083AC  26118.06698489  .00000037  00000+0  61589-4 0  9992
2 49212  87.9191 345.4313 0001857 105.1392 254.9946 13.18740152223378
ONEWEB-0348             
1 49213U 21083AD  26118.19039398  .00000049  00000+0  89318-4 0  9998
2 49213  87.9144 284.4170 0001601 111.7113 248.4191 13.20770055230210
ONEWEB-0350             
1 49214U 21083AE  26118.30053796 -.00000184  00000+0 -53890-3 0  9997
2 49214  87.8973 330.1579 0001363  87.9997 272.1288 13.13470071224380
ONEWEB-0351             
1 49215U 21083AF  26118.18395565  .00000047  00000+0  84199-4 0  9990
2 49215  87.9144 284.4167 0001614  66.7635 293.3668 13.20773528230171
ONEWEB-0352             
1 49216U 21083AG  26118.28106885  .00000223  00000+0  57583-3 0  9999
2 49216  87.8962 330.1752 0001773  72.0779 288.0544 13.13470598224476
ONEWEB-0354             
1 49217U 21083AH  26118.20933442  .00000003  00000+0 -24699-4 0  9999
2 49217  87.9145 284.4104 0001457 105.1999 254.9296 13.20773986230214
ONEWEB-0355             
1 49218U 21083AJ  26118.00528642 -.00000224  00000+0 -64810-3 0  9994
2 49218  87.8951 330.2361 0001590  79.7136 280.4173 13.13470282224318
ONEWEB-0357             
1 49219U 21083AK  26118.20618097 -.00000117  00000+0 -32032-3 0  9993
2 49219  87.9143 284.4056 0001766  89.2600 270.8736 13.20769570230214
ONEWEB-0332             
1 49279U 21090A   26118.20924883 -.00000028  00000+0 -11134-3 0  9991
2 49279  87.8924 299.6834 0001947  87.2835 272.8518 13.14502422221019
ONEWEB-0347             
1 49280U 21090B   26118.19672024  .00000089  00000+0  18724-3 0  9995
2 49280  87.9143 284.4162 0002033  93.9380 266.1986 13.20774148224445
