[{"OBJECT_NAME":"ONEWEB-0340","OBJECT_ID":"2021-083W","EPOCH":"2026-04-28T03:08:51.620928","MEAN_MOTION":13.18777475,"ECCENTRICITY":0.0001642,"INCLINATION":87.9204,"RA_OF_ASC_NODE":345.4116,"ARG_OF_PERICENTER":87.0724,"MEAN_ANOMALY":273.0596,"EPHEMERIS_TYPE":0,"CLASSIFICATION_TYPE":"U","NORAD_CAT_ID":49206,"ELEMENT_SET_NO":999,"REV_AT_EPOCH":22337,"BSTAR":0.0002952,"MEAN_MOTION_DOT":1.29e-06,"MEAN_MOTION_DDOT":0.0},{"OBJECT_NAME":"ONEWEB-0341","OBJECT_ID":"2021-083X","EPOCH":"2026-04-28T03:18:29.724192","MEAN_MOTION":13.1875666,"ECCENTRICITY":0.0001254,"INCLINATION":87.9197,"RA_OF_ASC_NODE":345.4166,"ARG_OF_PERICENTER":80.2167,"MEAN_ANOMALY":279.9107,"EPHEMERIS_TYPE":0,"CLASSIFICATION_TYPE":"U","NORAD_CAT_ID":49207,"ELEMENT_SET_NO":999,"REV_AT_EPOCH":22339,"BSTAR":0.00020787,"MEAN_MOTION_DOT":9.5e-07,"MEAN_MOTION_DDOT":0.0},{"OBJECT_NAME":"ONEWEB-0342","OBJECT_ID":"2021-083Y","EPOCH":"2026-04-28T04:47:49.290720","MEAN_MOTION":13.20770166,"ECCENTRICITY":0.0001796,"INCLINATION":87.9144,"RA_OF_ASC_NODE":284.4116,"ARG_OF_PERICENTER":91.5235,"MEAN_ANOMALY":268.6104,"EPHEMERIS_TYPE":0,"CLASSIFICATION_TYPE":"U","NORAD_CAT_ID":49208,"ELEMENT_SET_NO":999,"REV_AT_EPOCH":23018,"BSTAR":0.00014916,"MEAN_MOTION_DOT":7.4e-07,"MEAN_MOTION_DDOT":0.0},{"OBJECT_NAME":"ONEWEB-0343","OBJECT_ID":"2021-083Z","EPOCH":"2026-04-28T01:41:16.938816","MEAN_MOTION":13.18716556,"ECCENTRICITY":0.0001813,"INCLINATION":87.9198,"RA_OF_ASC_NODE":345.4269,"ARG_OF_PERICENTER":66.3733,"MEAN_ANOMALY":293.759,"EPHEMERIS_TYPE":0,"CLASSIFICATION_TYPE":"U","NORAD_CAT_ID":49209,"ELEMENT_SET_NO":999,"REV_AT_EPOCH":22343,"BSTAR":0.017814,"MEAN_MOTION_DOT":7.045e-05,"MEAN_MOTION_DDOT":0.0},{"OBJECT_NAME":"ONEWEB-0344","OBJECT_ID":"2021-083AA","EPOCH":"2026-04-28T07:11:34.821312","MEAN_MOTION":13.13469199,"ECCENTRICITY":0.0001343,"INCLINATION":87.8952,"RA_OF_ASC_NODE":330.1846,"ARG_OF_PERICENTER":83.7125,"MEAN_ANOMALY":276.4157,"EPHEMERIS_TYPE":0,"CLASSIFICATION_TYPE":"U","NORAD_CAT_ID":49210,"ELEMENT_SET_NO":999,"REV_AT_EPOCH":22434,"BSTAR":-0.00064413,"MEAN_MOTION_DOT":-2.22e-06,"MEAN_MOTION_DDOT":0.0},{"OBJECT_NAME":"ONEWEB-0345","OBJECT_ID":"2021-083AB","EPOCH":"2026-04-28T06:59:22.316064","MEAN_MOTION":13.13470777,"ECCENTRICITY":0.000141,"INCLINATION":87.8968,"RA_OF_ASC_NODE":330.1593,"ARG_OF_PERICENTER":83.3555,"MEAN_ANOMALY":276.7735,"EPHEMERIS_TYPE":0,"CLASSIFICATION_TYPE":"U","NORAD_CAT_ID":49211,"ELEMENT_SET_NO":999,"REV_AT_EPOCH":22435,"BSTAR":-6.2464e-05,"MEAN_MOTION_DOT":-1e-07,"MEAN_MOTION_DDOT":0.0},{"OBJECT_NAME":"ONEWEB-0346","OBJECT_ID":"2021-083AC","EPOCH":"2026-04-28T01:36:27.494496","MEAN_MOTION":13.18740152,"ECCENTRICITY":0.0001857,"INCLINATION":87.9191,"RA_OF_ASC_NODE":345.4313,"ARG_OF_PERICENTER":105.1392,"MEAN_ANOMALY":254.9946,"EPHEMERIS_TYPE":0,"CLASSIFICATION_TYPE":"U","NORAD_CAT_ID":49212,"ELEMENT_SET_NO":999,"REV_AT_EPOCH":22337,"BSTAR":6.158900000000001e-05,"MEAN_MOTION_DOT":3.7e-07,"MEAN_MOTION_DDOT":0.0},{"OBJECT_NAME":"ONEWEB-0348","OBJECT_ID":"2021-083AD","EPOCH":"2026-04-28T04:34:10.039872","MEAN_MOTION":13.20770055,"ECCENTRICITY":0.0001601,"INCLINATION":87.9144,"RA_OF_ASC_NODE":284.417,"ARG_OF_PERICENTER":111.7113,"MEAN_ANOMALY":248.4191,"EPHEMERIS_TYPE":0,"CLASSIFICATION_TYPE":"U","NORAD_CAT_ID":49213,"ELEMENT_SET_NO":999,"REV_AT_EPOCH":23021,"BSTAR":8.9318e-05,"MEAN_MOTION_DOT":4.9e-07,"MEAN_MOTION_DDOT":0.0},{"OBJECT_NAME":"ONEWEB-0350","OBJECT_ID":"2021-083AE","EPOCH":"2026-04-28T07:12:46.479744","MEAN_MOTION":13.13470071,"ECCENTRICITY":0.0001363,"INCLINATION":87.8973,"RA_OF_ASC_NODE":330.1579,"ARG_OF_PERICENTER":87.9997,"MEAN_ANOMALY":272.1288,"EPHEMERIS_TYPE":0,"CLASSIFICATION_TYPE":"U","NORAD_CAT_ID":49214,"ELEMENT_SET_NO":999,"REV_AT_EPOCH":22438,"BSTAR":-0.0005389,"MEAN_MOTION_DOT":-1.84e-06,"MEAN_MOTION_DDOT":0.0},{"OBJECT_NAME":"ONEWEB-0351","OBJECT_ID":"2021-083AF","EPOCH":"2026-04-28T04:24:53.768160","MEAN_MOTION":13.20773528,"ECCENTRICITY":0.0001614,"INCLINATION":87.9144,"RA_OF_ASC_NODE":284.4167,"ARG_OF_PERICENTER":66.7635,"MEAN_ANOMALY":293.3668,"EPHEMERIS_TYPE":0,"CLASSIFICATION_TYPE":"U","NORAD_CAT_ID":49215,"ELEMENT_SET_NO":999,"REV_AT_EPOCH":23017,"BSTAR":8.419900000000001e-05,"MEAN_MOTION_DOT":4.7e-07,"MEAN_MOTION_DDOT":0.0},{"OBJECT_NAME":"ONEWEB-0352","OBJECT_ID":"2021-083AG","EPOCH":"2026-04-28T06:44:44.348640","MEAN_MOTION":13.13470598,"ECCENTRICITY":0.0001773,"INCLINATION":87.8962,"RA_OF_ASC_NODE":330.1752,"ARG_OF_PERICENTER":72.0779,"MEAN_ANOMALY":288.0544,"EPHEMERIS_TYPE":0,"CLASSIFICATION_TYPE":"U","NORAD_CAT_ID":49216,"ELEMENT_SET_NO":999,"REV_AT_EPOCH":22447,"BSTAR":0.0005758299999999999,"MEAN_MOTION_DOT":2.23e-06,"MEAN_MOTION_DDOT":0.0},{"OBJECT_NAME":"ONEWEB-0354","OBJECT_ID":"2021-083AH","EPOCH":"2026-04-28T05:01:26.493888","MEAN_MOTION":13.20773986,"ECCENTRICITY":0.0001457,"INCLINATION":87.9145,"RA_OF_ASC_NODE":284.4104,"ARG_OF_PERICENTER":105.1999,"MEAN_ANOMALY":254.9296,"EPHEMERIS_TYPE":0,"CLASSIFICATION_TYPE":"U","NORAD_CAT_ID":49217,"ELEMENT_SET_NO":999,"REV_AT_EPOCH":23021,"BSTAR":-2.4699e-05,"MEAN_MOTION_DOT":3e-08,"MEAN_MOTION_DDOT":0.0},{"OBJECT_NAME":"ONEWEB-0355","OBJECT_ID":"2021-083AJ","EPOCH":"2026-04-28T00:07:36.746688","MEAN_MOTION":13.13470282,"ECCENTRICITY":0.000159,"INCLINATION":87.8951,"RA_OF_ASC_NODE":330.2361,"ARG_OF_PERICENTER":79.7136,"MEAN_ANOMALY":280.4173,"EPHEMERIS_TYPE":0,"CLASSIFICATION_TYPE":"U","NORAD_CAT_ID":49218,"ELEMENT_SET_NO":999,"REV_AT_EPOCH":22431,"BSTAR":-0.0006481,"MEAN_MOTION_DOT":-2.24e-06,"MEAN_MOTION_DDOT":0.0},{"OBJECT_NAME":"ONEWEB-0357","OBJECT_ID":"2021-083AK","EPOCH":"2026-04-28T04:56:54.035808","MEAN_MOTION":13.2076957,"ECCENTRICITY":0.0001766,"INCLINATION":87.9143,"RA_OF_ASC_NODE":284.4056,"ARG_OF_PERICENTER":89.26,"MEAN_ANOMALY":270.8736,"EPHEMERIS_TYPE":0,"CLASSIFICATION_TYPE":"U","NORAD_CAT_ID":49219,"ELEMENT_SET_NO":999,"REV_AT_EPOCH":23021,"BSTAR":-0.00032032,"MEAN_MOTION_DOT":-1.17e-06,"MEAN_MOTION_DDOT":0.0},{"OBJECT_NAME":"ONEWEB-0332","OBJECT_ID":"2021-090A","EPOCH":"2026-04-28T05:01:19.098912","MEAN_MOTION":13.14502422,"ECCENTRICITY":0.0001947,"INCLINATION":87.8924,"RA_OF_ASC_NODE":299.6834,"ARG_OF_PERICENTER":87.2835,"MEAN_ANOMALY":272.8518,"EPHEMERIS_TYPE":0,"CLASSIFICATION_TYPE":"U","NORAD_CAT_ID":49279,"ELEMENT_SET_NO":999,"REV_AT_EPOCH":22101,"BSTAR":-0.00011134,"MEAN_MOTION_DOT":-2.8e-07,"MEAN_MOTION_DDOT":0.0},{"OBJECT_NAME":"ONEWEB-0347","OBJECT_ID":"2021-090B","EPOCH":"2026-04-28T04:43:16.628736","MEAN_MOTION":13.20774148,"ECCENTRICITY":0.0002033,"INCLINATION":87.9143,"RA_OF_ASC_NODE":284.4162,"ARG_OF_PERICENTER":93.938,"MEAN_ANOMALY":266.1986,"EPHEMERIS_TYPE":0,"CLASSIFICATION_TYPE":"U","NORAD_CAT_ID":49280,"ELEMENT_SET_NO":999,"REV_AT_EPOCH":22444,"BSTAR":0.00018724,"MEAN_MOTION_DOT":8.9e-07,"MEAN_MOTION_DDOT":0.0}]